start=new Date('2022-12-19T00:00:00.000Z').valueOf();
sats=[{"REV_AT_EPOCH":"15240","NORAD_CAT_ID":"45397","LAUNCH_DATE":"2020-03-18","ECCENTRICITY":"0.00017210","MEAN_ELEMENT_THEORY":"SGP4","REF_FRAME":"TEME","TLE_LINE1":"1 45397U 20019AP  22352.52283125 -.00000411  00000-0 -87195-5 0  9995","INCLINATION":"53.0555","APOAPSIS":"548.428","MEAN_MOTION":"15.06392545","EPOCH":"2022-12-18T12:32:52.620000","OBJECT_TYPE":"PAYLOAD","MEAN_ANOMALY":"313.4344","PERIOD":"95.593","SITE":"AFETR","SEMIMAJOR_AXIS":"6925.371","FILE":"3708942","RCS_SIZE":"LARGE","MEAN_MOTION_DOT":"-0.00000411","EPHEMERIS_TYPE":"0","BSTAR":"-0.00000871950000","ARG_OF_PERICENTER":"46.6788","MEAN_MOTION_DDOT":"0.0000000000000","CLASSIFICATION_TYPE":"U","OBJECT_ID":"2020-019AP","TIME_SYSTEM":"UTC","RA_OF_ASC_NODE":"31.1157","ELEMENT_SET_NO":"999","PERIAPSIS":"546.045","CENTER_NAME":"EARTH","COUNTRY_CODE":"US","TLE_LINE2":"2 45397  53.0555  31.1157 0001721  46.6788 313.4344 15.06392545152405","GP_ID":"220823831","OBJECT_NAME":"STARLINK-1307","DECAY_DATE":null},{"PERIAPSIS":"545.893","ELEMENT_SET_NO":"999","CENTER_NAME":"EARTH","COUNTRY_CODE":"US","TLE_LINE2":"2 45398  53.0555  29.6854 0001879  41.7775 318.3357 15.06406230152380","RA_OF_ASC_NODE":"29.6854","OBJECT_ID":"2020-019AQ","TIME_SYSTEM":"UTC","ARG_OF_PERICENTER":"41.7775","MEAN_MOTION_DDOT":"0.0000000000000","CLASSIFICATION_TYPE":"U","DECAY_DATE":null,"GP_ID":"220866137","OBJECT_NAME":"STARLINK-1312","INCLINATION":"53.0555","APOAPSIS":"548.496","MEAN_MOTION":"15.06406230","REF_FRAME":"TEME","TLE_LINE1":"1 45398U 20019AQ  22352.84717785  .00000262  00000-0  36511-4 0  9992","NORAD_CAT_ID":"45398","LAUNCH_DATE":"2020-03-18","ECCENTRICITY":"0.00018790","MEAN_ELEMENT_THEORY":"SGP4","REV_AT_EPOCH":"15238","BSTAR":"0.00003651100000","EPHEMERIS_TYPE":"0","SITE":"AFETR","FILE":"3709623","RCS_SIZE":"LARGE","SEMIMAJOR_AXIS":"6925.329","MEAN_MOTION_DOT":"0.00000262","PERIOD":"95.592","OBJECT_TYPE":"PAYLOAD","EPOCH":"2022-12-18T20:19:56.166240","MEAN_ANOMALY":"318.3357"},{"DECAY_DATE":null,"OBJECT_NAME":"STARLINK-1255","GP_ID":"220866388","TIME_SYSTEM":"UTC","OBJECT_ID":"2020-019AR","CLASSIFICATION_TYPE":"U","MEAN_MOTION_DDOT":"0.0000000000000","ARG_OF_PERICENTER":"46.6458","TLE_LINE2":"2 45399  53.0562  19.7701 0001968  46.6458 313.4695 15.06387173152577","COUNTRY_CODE":"US","CENTER_NAME":"EARTH","ELEMENT_SET_NO":"999","PERIAPSIS":"545.890","RA_OF_ASC_NODE":"19.7701","PERIOD":"95.593","MEAN_ANOMALY":"313.4695","EPOCH":"2022-12-18T19:44:07.962432","OBJECT_TYPE":"PAYLOAD","EPHEMERIS_TYPE":"0","BSTAR":"-0.00004937700000","MEAN_MOTION_DOT":"-0.00001017","RCS_SIZE":"LARGE","FILE":"3709623","SEMIMAJOR_AXIS":"6925.388","SITE":"AFETR","MEAN_ELEMENT_THEORY":"SGP4","ECCENTRICITY":"0.00019680","LAUNCH_DATE":"2020-03-18","NORAD_CAT_ID":"45399","REV_AT_EPOCH":"15257","MEAN_MOTION":"15.06387173","APOAPSIS":"548.616","INCLINATION":"53.0562","TLE_LINE1":"1 45399U 20019AR  22352.82231438 -.00001017  00000-0 -49377-4 0  9992","REF_FRAME":"TEME"},{"PERIOD":"95.592","OBJECT_TYPE":"PAYLOAD","EPOCH":"2022-12-18T13:43:12.015840","MEAN_ANOMALY":"310.6403","EPHEMERIS_TYPE":"0","BSTAR":"0.00003779200000","SITE":"AFETR","FILE":"3709623","SEMIMAJOR_AXIS":"6925.358","RCS_SIZE":"LARGE","MEAN_MOTION_DOT":"0.00000281","NORAD_CAT_ID":"45400","LAUNCH_DATE":"2020-03-18","ECCENTRICITY":"0.00018880","MEAN_ELEMENT_THEORY":"SGP4","REV_AT_EPOCH":"15246","INCLINATION":"53.0570","APOAPSIS":"548.530","MEAN_MOTION":"15.06396994","REF_FRAME":"TEME","TLE_LINE1":"1 45400U 20019AS  22352.57166685  .00000281  00000-0  37792-4 0  9996","DECAY_DATE":null,"GP_ID":"220867134","OBJECT_NAME":"STARLINK-1213","OBJECT_ID":"2020-019AS","TIME_SYSTEM":"UTC","ARG_OF_PERICENTER":"49.4751","MEAN_MOTION_DDOT":"0.0000000000000","CLASSIFICATION_TYPE":"U","ELEMENT_SET_NO":"999","PERIAPSIS":"545.915","CENTER_NAME":"EARTH","COUNTRY_CODE":"US","TLE_LINE2":"2 45400  53.0570  20.9141 0001888  49.4751 310.6403 15.06396994152464","RA_OF_ASC_NODE":"20.9141"},{"REF_FRAME":"TEME","TLE_LINE1":"1 45401U 20019AT  22352.50161009  .00014041  00000-0  95853-3 0  9995","INCLINATION":"53.0541","APOAPSIS":"548.539","MEAN_MOTION":"15.06442604","REV_AT_EPOCH":"15252","NORAD_CAT_ID":"45401","LAUNCH_DATE":"2020-03-18","ECCENTRICITY":"0.00021030","MEAN_ELEMENT_THEORY":"SGP4","SITE":"AFETR","FILE":"3708942","RCS_SIZE":"LARGE","SEMIMAJOR_AXIS":"6925.218","MEAN_MOTION_DOT":"0.00014041","EPHEMERIS_TYPE":"0","BSTAR":"0.00095853000000","OBJECT_TYPE":"PAYLOAD","EPOCH":"2022-12-18T12:02:19.111776","MEAN_ANOMALY":"312.3957","PERIOD":"95.589","RA_OF_ASC_NODE":"21.2368","PERIAPSIS":"545.627","ELEMENT_SET_NO":"999","CENTER_NAME":"EARTH","COUNTRY_CODE":"US","TLE_LINE2":"2 45401  53.0541  21.2368 0002103  47.7210 312.3957 15.06442604152520","ARG_OF_PERICENTER":"47.7210","MEAN_MOTION_DDOT":"0.0000000000000","CLASSIFICATION_TYPE":"U","OBJECT_ID":"2020-019AT","TIME_SYSTEM":"UTC","GP_ID":"220823332","OBJECT_NAME":"STARLINK-1256","DECAY_DATE":null},{"PERIOD":"95.592","MEAN_ANOMALY":"314.4098","EPOCH":"2022-12-18T13:31:13.312128","OBJECT_TYPE":"PAYLOAD","EPHEMERIS_TYPE":"0","BSTAR":"0.00010604000000","MEAN_MOTION_DOT":"0.00001298","RCS_SIZE":"LARGE","FILE":"3709623","SEMIMAJOR_AXIS":"6925.350","SITE":"AFETR","MEAN_ELEMENT_THEORY":"SGP4","LAUNCH_DATE":"2020-03-18","ECCENTRICITY":"0.00018020","NORAD_CAT_ID":"45402","REV_AT_EPOCH":"15254","MEAN_MOTION":"15.06399425","APOAPSIS":"548.463","INCLINATION":"53.0563","TLE_LINE1":"1 45402U 20019AU  22352.56334852  .00001298  00000-0  10604-3 0  9991","REF_FRAME":"TEME","DECAY_DATE":null,"OBJECT_NAME":"STARLINK-1257","GP_ID":"220865638","TIME_SYSTEM":"UTC","OBJECT_ID":"2020-019AU","MEAN_MOTION_DDOT":"0.0000000000000","CLASSIFICATION_TYPE":"U","ARG_OF_PERICENTER":"45.7038","TLE_LINE2":"2 45402  53.0563  20.9448 0001802  45.7038 314.4098 15.06399425152544","COUNTRY_CODE":"US","CENTER_NAME":"EARTH","ELEMENT_SET_NO":"999","PERIAPSIS":"545.967","RA_OF_ASC_NODE":"20.9448"},{"RA_OF_ASC_NODE":"19.9690","ELEMENT_SET_NO":"999","PERIAPSIS":"545.950","CENTER_NAME":"EARTH","COUNTRY_CODE":"US","TLE_LINE2":"2 45403  53.0556  19.9690 0001866  40.3359 319.7768 15.06390584152562","ARG_OF_PERICENTER":"40.3359","CLASSIFICATION_TYPE":"U","MEAN_MOTION_DDOT":"0.0000000000000","OBJECT_ID":"2020-019AV","TIME_SYSTEM":"UTC","OBJECT_NAME":"STARLINK-1259","GP_ID":"220866888","DECAY_DATE":null,"REF_FRAME":"TEME","TLE_LINE1":"1 45403U 20019AV  22352.77808318 -.00001435  00000-0 -77465-4 0  9992","INCLINATION":"53.0556","APOAPSIS":"548.535","MEAN_MOTION":"15.06390584","REV_AT_EPOCH":"15256","NORAD_CAT_ID":"45403","ECCENTRICITY":"0.00018660","LAUNCH_DATE":"2020-03-18","MEAN_ELEMENT_THEORY":"SGP4","SITE":"AFETR","RCS_SIZE":"LARGE","FILE":"3709623","SEMIMAJOR_AXIS":"6925.377","MEAN_MOTION_DOT":"-0.00001435","BSTAR":"-0.00007746500000","EPHEMERIS_TYPE":"0","EPOCH":"2022-12-18T18:40:26.386752","OBJECT_TYPE":"PAYLOAD","MEAN_ANOMALY":"319.7768","PERIOD":"95.593"},{"REF_FRAME":"TEME","TLE_LINE1":"1 45404U 20019AW  22352.78914158  .00001668  00000-0  13085-3 0  9997","INCLINATION":"53.0565","MEAN_MOTION":"15.06395787","APOAPSIS":"548.803","REV_AT_EPOCH":"15247","LAUNCH_DATE":"2020-03-18","ECCENTRICITY":"0.00022760","NORAD_CAT_ID":"45404","MEAN_ELEMENT_THEORY":"SGP4","SITE":"AFETR","MEAN_MOTION_DOT":"0.00001668","SEMIMAJOR_AXIS":"6925.361","FILE":"3709623","RCS_SIZE":"LARGE","EPHEMERIS_TYPE":"0","BSTAR":"0.00013085000000","EPOCH":"2022-12-18T18:56:21.832512","OBJECT_TYPE":"PAYLOAD","MEAN_ANOMALY":"316.9158","PERIOD":"95.592","RA_OF_ASC_NODE":"19.9419","CENTER_NAME":"EARTH","ELEMENT_SET_NO":"999","PERIAPSIS":"545.650","TLE_LINE2":"2 45404  53.0565  19.9419 0002276  43.2009 316.9158 15.06395787152474","COUNTRY_CODE":"US","ARG_OF_PERICENTER":"43.2009","CLASSIFICATION_TYPE":"U","MEAN_MOTION_DDOT":"0.0000000000000","OBJECT_ID":"2020-019AW","TIME_SYSTEM":"UTC","OBJECT_NAME":"STARLINK-1260","GP_ID":"220866636","DECAY_DATE":null},{"EPOCH":"2022-12-18T18:35:07.756512","OBJECT_TYPE":"PAYLOAD","MEAN_ANOMALY":"321.9984","PERIOD":"95.592","SITE":"AFETR","MEAN_MOTION_DOT":"-0.00005271","FILE":"3709623","RCS_SIZE":"LARGE","SEMIMAJOR_AXIS":"6925.341","EPHEMERIS_TYPE":"0","BSTAR":"-0.00033516000000","REV_AT_EPOCH":"15247","LAUNCH_DATE":"2020-03-18","ECCENTRICITY":"0.00021360","NORAD_CAT_ID":"45405","MEAN_ELEMENT_THEORY":"SGP4","REF_FRAME":"TEME","TLE_LINE1":"1 45405U 20019AX  22352.77439533 -.00005271  00000-0 -33516-3 0  9993","INCLINATION":"53.0559","MEAN_MOTION":"15.06402521","APOAPSIS":"548.685","OBJECT_NAME":"STARLINK-1263","GP_ID":"220865388","DECAY_DATE":null,"ARG_OF_PERICENTER":"38.1155","CLASSIFICATION_TYPE":"U","MEAN_MOTION_DDOT":"0.0000000000000","OBJECT_ID":"2020-019AX","TIME_SYSTEM":"UTC","RA_OF_ASC_NODE":"20.0123","CENTER_NAME":"EARTH","PERIAPSIS":"545.727","ELEMENT_SET_NO":"999","TLE_LINE2":"2 45405  53.0559  20.0123 0002136  38.1155 321.9984 15.06402521152471","COUNTRY_CODE":"US"},{"PERIOD":"95.593","EPOCH":"2022-12-18T18:45:45.055872","OBJECT_TYPE":"PAYLOAD","MEAN_ANOMALY":"321.7282","BSTAR":"0.00002487800000","EPHEMERIS_TYPE":"0","SITE":"AFETR","MEAN_MOTION_DOT":"0.00000089","RCS_SIZE":"LARGE","FILE":"3709450","SEMIMAJOR_AXIS":"6925.381","ECCENTRICITY":"0.00018850","LAUNCH_DATE":"2020-03-18","NORAD_CAT_ID":"45406","MEAN_ELEMENT_THEORY":"SGP4","REV_AT_EPOCH":"15247","INCLINATION":"53.0571","MEAN_MOTION":"15.06389439","APOAPSIS":"548.551","REF_FRAME":"TEME","TLE_LINE1":"1 45406U 20019AY  22352.78177148  .00000089  00000-0  24878-4 0  9998","DECAY_DATE":null,"GP_ID":"220843366","OBJECT_NAME":"STARLINK-1265","OBJECT_ID":"2020-019AY","TIME_SYSTEM":"UTC","ARG_OF_PERICENTER":"38.3841","MEAN_MOTION_DDOT":"0.0000000000000","CLASSIFICATION_TYPE":"U","CENTER_NAME":"EARTH","PERIAPSIS":"545.940","ELEMENT_SET_NO":"999","TLE_LINE2":"2 45406  53.0571  19.9576 0001885  38.3841 321.7282 15.06389439152470","COUNTRY_CODE":"US","RA_OF_ASC_NODE":"19.9576"}];
